CCSDS_OMM_VERS = 2.0
CREATION_DATE  = 
ORIGINATOR     = 

OBJECT_NAME    = STARLINK-36826
OBJECT_ID      = 2026-035G
CENTER_NAME    = EARTH
REF_FRAME      = TEME
TIME_SYSTEM    = UTC
MEAN_ELEMENT_THEORY = SGP/SGP4

EPOCH          = 2026-03-04T01:35:26.699136
MEAN_MOTION    = 16.00291911
ECCENTRICITY   = .000021
INCLINATION    = 97.2769
RA_OF_ASC_NODE = 354.9661
ARG_OF_PERICENTER = 132.9530
MEAN_ANOMALY   = 227.1766

EPHEMERIS_TYPE = 0
CLASSIFICATION_TYPE = U
NORAD_CAT_ID   = 67885
ELEMENT_SET_NO = 999
REV_AT_EPOCH   = 294
BSTAR          = -.46611E-3
MEAN_MOTION_DOT = -.24089E-2
MEAN_MOTION_DDOT = .23624E-4

CCSDS_OMM_VERS = 2.0
CREATION_DATE  = 
ORIGINATOR     = 

OBJECT_NAME    = STARLINK-36390
OBJECT_ID      = 2026-035H
CENTER_NAME    = EARTH
REF_FRAME      = TEME
TIME_SYSTEM    = UTC
MEAN_ELEMENT_THEORY = SGP/SGP4

EPOCH          = 2026-03-04T01:34:26.961312
MEAN_MOTION    = 16.00395088
ECCENTRICITY   = .0001083
INCLINATION    = 97.2764
RA_OF_ASC_NODE = 354.9664
ARG_OF_PERICENTER = 173.5678
MEAN_ANOMALY   = 186.5615

EPHEMERIS_TYPE = 0
CLASSIFICATION_TYPE = U
NORAD_CAT_ID   = 67886
ELEMENT_SET_NO = 999
REV_AT_EPOCH   = 294
BSTAR          = -.55682E-3
MEAN_MOTION_DOT = -.289297E-2
MEAN_MOTION_DDOT = .32865E-4

CCSDS_OMM_VERS = 2.0
CREATION_DATE  = 
ORIGINATOR     = 

OBJECT_NAME    = STARLINK-36368
OBJECT_ID      = 2026-035J
CENTER_NAME    = EARTH
REF_FRAME      = TEME
TIME_SYSTEM    = UTC
MEAN_ELEMENT_THEORY = SGP/SGP4

EPOCH          = 2026-03-04T01:33:30.662208
MEAN_MOTION    = 16.00495587
ECCENTRICITY   = .0001154
INCLINATION    = 97.2764
RA_OF_ASC_NODE = 354.9671
ARG_OF_PERICENTER = 186.8799
MEAN_ANOMALY   = 173.2464

EPHEMERIS_TYPE = 0
CLASSIFICATION_TYPE = U
NORAD_CAT_ID   = 67887
ELEMENT_SET_NO = 999
REV_AT_EPOCH   = 294
BSTAR          = -.59443E-3
MEAN_MOTION_DOT = -.310542E-2
MEAN_MOTION_DDOT = .37443E-4

CCSDS_OMM_VERS = 2.0
CREATION_DATE  = 
ORIGINATOR     = 

OBJECT_NAME    = STARLINK-36801
OBJECT_ID      = 2026-035K
CENTER_NAME    = EARTH
REF_FRAME      = TEME
TIME_SYSTEM    = UTC
MEAN_ELEMENT_THEORY = SGP/SGP4

EPOCH          = 2026-03-04T01:32:36.483360
MEAN_MOTION    = 16.00594062
ECCENTRICITY   = .0000864
INCLINATION    = 97.2763
RA_OF_ASC_NODE = 354.9686
ARG_OF_PERICENTER = 189.3554
MEAN_ANOMALY   = 170.7709

EPHEMERIS_TYPE = 0
CLASSIFICATION_TYPE = U
NORAD_CAT_ID   = 67888
ELEMENT_SET_NO = 999
REV_AT_EPOCH   = 294
BSTAR          = -.61862E-3
MEAN_MOTION_DOT = -.32494E-2
MEAN_MOTION_DDOT = .40734E-4

CCSDS_OMM_VERS = 2.0
CREATION_DATE  = 
ORIGINATOR     = 

OBJECT_NAME    = STARLINK-36372
OBJECT_ID      = 2026-035L
CENTER_NAME    = EARTH
REF_FRAME      = TEME
TIME_SYSTEM    = UTC
MEAN_ELEMENT_THEORY = SGP/SGP4

EPOCH          = 2026-03-04T01:30:52.862112
MEAN_MOTION    = 16.00775484
ECCENTRICITY   = .0000972
INCLINATION    = 97.2755
RA_OF_ASC_NODE = 354.9695
ARG_OF_PERICENTER = 186.9616
MEAN_ANOMALY   = 173.1650

EPHEMERIS_TYPE = 0
CLASSIFICATION_TYPE = U
NORAD_CAT_ID   = 67889
ELEMENT_SET_NO = 999
REV_AT_EPOCH   = 294
BSTAR          = -.61529E-3
MEAN_MOTION_DOT = -.326553E-2
MEAN_MOTION_DDOT = .41195E-4

CCSDS_OMM_VERS = 2.0
CREATION_DATE  = 
ORIGINATOR     = 

OBJECT_NAME    = STARLINK-36363
OBJECT_ID      = 2026-035M
CENTER_NAME    = EARTH
REF_FRAME      = TEME
TIME_SYSTEM    = UTC
MEAN_ELEMENT_THEORY = SGP/SGP4

EPOCH          = 2026-03-04T01:31:35.332896
MEAN_MOTION    = 16.00705765
ECCENTRICITY   = .000049
INCLINATION    = 97.2759
RA_OF_ASC_NODE = 354.9692
ARG_OF_PERICENTER = 153.7515
MEAN_ANOMALY   = 206.3789

EPHEMERIS_TYPE = 0
CLASSIFICATION_TYPE = U
NORAD_CAT_ID   = 67890
ELEMENT_SET_NO = 999
REV_AT_EPOCH   = 294
BSTAR          = -.57981E-3
MEAN_MOTION_DOT = -.306551E-2
MEAN_MOTION_DDOT = .36658E-4

CCSDS_OMM_VERS = 2.0
CREATION_DATE  = 
ORIGINATOR     = 

OBJECT_NAME    = STARLINK-36816
OBJECT_ID      = 2026-035N
CENTER_NAME    = EARTH
REF_FRAME      = TEME
TIME_SYSTEM    = UTC
MEAN_ELEMENT_THEORY = SGP/SGP4

EPOCH          = 2026-03-04T00:00:00.998784
MEAN_MOTION    = 16.02002044
ECCENTRICITY   = .0000871
INCLINATION    = 97.2738
RA_OF_ASC_NODE = 354.9215
ARG_OF_PERICENTER = 112.9051
MEAN_ANOMALY   = 295.4692

EPHEMERIS_TYPE = 0
CLASSIFICATION_TYPE = U
NORAD_CAT_ID   = 67891
ELEMENT_SET_NO = 999
REV_AT_EPOCH   = 273
BSTAR          = -.19029E-2
MEAN_MOTION_DOT = -.1077214E-1
MEAN_MOTION_DDOT = .38484E-3

CCSDS_OMM_VERS = 2.0
CREATION_DATE  = 
ORIGINATOR     = 

OBJECT_NAME    = STARLINK-36813
OBJECT_ID      = 2026-035P
CENTER_NAME    = EARTH
REF_FRAME      = TEME
TIME_SYSTEM    = UTC
MEAN_ELEMENT_THEORY = SGP/SGP4

EPOCH          = 2026-03-04T02:53:41.078112
MEAN_MOTION    = 16.01542028
ECCENTRICITY   = .0000621
INCLINATION    = 97.2740
RA_OF_ASC_NODE = 355.0434
ARG_OF_PERICENTER = 88.9217
MEAN_ANOMALY   = 271.2134

EPHEMERIS_TYPE = 0
CLASSIFICATION_TYPE = U
NORAD_CAT_ID   = 67892
ELEMENT_SET_NO = 999
REV_AT_EPOCH   = 295
BSTAR          = .14673E-4
MEAN_MOTION_DOT = .7412E-4
MEAN_MOTION_DDOT = .22812E-5

CCSDS_OMM_VERS = 2.0
CREATION_DATE  = 
ORIGINATOR     = 

OBJECT_NAME    = STARLINK-36803
OBJECT_ID      = 2026-035Q
CENTER_NAME    = EARTH
REF_FRAME      = TEME
TIME_SYSTEM    = UTC
MEAN_ELEMENT_THEORY = SGP/SGP4

EPOCH          = 2026-03-04T01:29:47.771808
MEAN_MOTION    = 16.00889480
ECCENTRICITY   = .0000312
INCLINATION    = 97.2757
RA_OF_ASC_NODE = 354.9710
ARG_OF_PERICENTER = 117.9304
MEAN_ANOMALY   = 242.2007

EPHEMERIS_TYPE = 0
CLASSIFICATION_TYPE = U
NORAD_CAT_ID   = 67893
ELEMENT_SET_NO = 999
REV_AT_EPOCH   = 294
BSTAR          = -.5748E-3
MEAN_MOTION_DOT = -.30711E-2
MEAN_MOTION_DDOT = .36862E-4

CCSDS_OMM_VERS = 2.0
CREATION_DATE  = 
ORIGINATOR     = 

OBJECT_NAME    = STARLINK-36846
OBJECT_ID      = 2026-035R
CENTER_NAME    = EARTH
REF_FRAME      = TEME
TIME_SYSTEM    = UTC
MEAN_ELEMENT_THEORY = SGP/SGP4

EPOCH          = 2026-03-04T01:27:34.699392
MEAN_MOTION    = 16.01087752
ECCENTRICITY   = .0000644
INCLINATION    = 97.2759
RA_OF_ASC_NODE = 354.9733
ARG_OF_PERICENTER = 183.8033
MEAN_ANOMALY   = 176.3241

EPHEMERIS_TYPE = 0
CLASSIFICATION_TYPE = U
NORAD_CAT_ID   = 67894
ELEMENT_SET_NO = 999
REV_AT_EPOCH   = 294
BSTAR          = -.64435E-3
MEAN_MOTION_DOT = -.348067E-2
MEAN_MOTION_DDOT = .46503E-4

CCSDS_OMM_VERS = 2.0
CREATION_DATE  = 
ORIGINATOR     = 

OBJECT_NAME    = STARLINK-36866
OBJECT_ID      = 2026-035S
CENTER_NAME    = EARTH
REF_FRAME      = TEME
TIME_SYSTEM    = UTC
MEAN_ELEMENT_THEORY = SGP/SGP4

EPOCH          = 2026-03-04T01:26:36.513312
MEAN_MOTION    = 16.01202455
ECCENTRICITY   = .0000795
INCLINATION    = 97.2759
RA_OF_ASC_NODE = 354.9738
ARG_OF_PERICENTER = 212.9588
MEAN_ANOMALY   = 147.1642

EPHEMERIS_TYPE = 0
CLASSIFICATION_TYPE = U
NORAD_CAT_ID   = 67895
ELEMENT_SET_NO = 999
REV_AT_EPOCH   = 294
BSTAR          = -.62205E-3
MEAN_MOTION_DOT = -.338278E-2
MEAN_MOTION_DDOT = .44182E-4

CCSDS_OMM_VERS = 2.0
CREATION_DATE  = 
ORIGINATOR     = 

OBJECT_NAME    = STARLINK-36877
OBJECT_ID      = 2026-035T
CENTER_NAME    = EARTH
REF_FRAME      = TEME
TIME_SYSTEM    = UTC
MEAN_ELEMENT_THEORY = SGP/SGP4

EPOCH          = 2026-03-04T01:28:38.353728
MEAN_MOTION    = 16.00997081
ECCENTRICITY   = .0000595
INCLINATION    = 97.2758
RA_OF_ASC_NODE = 354.9717
ARG_OF_PERICENTER = 186.2727
MEAN_ANOMALY   = 173.8545

EPHEMERIS_TYPE = 0
CLASSIFICATION_TYPE = U
NORAD_CAT_ID   = 67896
ELEMENT_SET_NO = 999
REV_AT_EPOCH   = 294
BSTAR          = -.61674E-3
MEAN_MOTION_DOT = -.331475E-2
MEAN_MOTION_DDOT = .42455E-4

